ONEWEB-0283             
1 49001U 21060AL  25027.32558628  .00000022  00000+0  24151-4 0  9998
2 49001  87.9125 329.5940 0001604  86.1331 273.9983 13.16594950174379
ONEWEB-0284             
1 49002U 21060AM  25026.93926465 -.00000082  00000+0 -24882-3 0  9991
2 49002  87.9117 329.6413 0002005  78.9742 281.1614 13.16594439174293
ONEWEB-0285             
1 49075U 21075A   25027.15047158  .00000321  00000+0  85794-3 0  9998
2 49075  87.8850  91.4194 0001895 100.6524 259.4818 13.12444345169815
ONEWEB-0286             
1 49076U 21075B   25026.66451865 -.00000378  00000+0 -10853-2 0  9995
2 49076  87.8848  91.5118 0001805  93.3493 266.7842 13.12442647168128
ONEWEB-0287             
1 49077U 21075C   25027.27985573  .00003475  00000+0  89091-2 0  9991
2 49077  87.9083 106.6575 0001856  88.3362 271.7982 13.17679235167974
ONEWEB-0288             
1 49078U 21075D   25027.18439600  .00000001  00000+0 -33854-4 0  9998
2 49078  87.8845  91.4110 0001986  97.7707 262.3647 13.12441910169807
ONEWEB-0289             
1 49079U 21075E   25027.23264100  .00000111  00000+0  25396-3 0  9998
2 49079  87.9085 106.6969 0001820 105.2740 254.8593 13.17648812168546
ONEWEB-0290             
1 49080U 21075F   25027.29170876  .00000114  00000+0  26011-3 0  9990
2 49080  87.9083 106.6432 0002504 111.6549 248.4849 13.17648609167972
